[{"OBJECT_NAME":"STARLINK-2420","OBJECT_ID":"2021-018AW","EPOCH":"2026-03-09T17:41:34.111968","MEAN_MOTION":15.06391641,"ECCENTRICITY":0.00013816,"INCLINATION":53.0557,"RA_OF_ASC_NODE":236.4043,"ARG_OF_PERICENTER":85.1184,"MEAN_ANOMALY":274.9962,"EPHEMERIS_TYPE":0,"CLASSIFICATION_TYPE":"U","NORAD_CAT_ID":47831,"ELEMENT_SET_NO":999,"REV_AT_EPOCH":27686,"BSTAR":6.8977019e-5,"MEAN_MOTION_DOT":7.46e-6,"MEAN_MOTION_DDOT":0},{"OBJECT_NAME":"NOAA 16 DEB","OBJECT_ID":"2000-055LF","EPOCH":"2026-03-09T22:09:26.280576","MEAN_MOTION":15.03400913,"ECCENTRICITY":0.0013479,"INCLINATION":98.8787,"RA_OF_ASC_NODE":242.3075,"ARG_OF_PERICENTER":293.6263,"MEAN_ANOMALY":66.3543,"EPHEMERIS_TYPE":0,"CLASSIFICATION_TYPE":"U","NORAD_CAT_ID":41426,"ELEMENT_SET_NO":999,"REV_AT_EPOCH":52286,"BSTAR":0.010804821,"MEAN_MOTION_DOT":0.00150198,"MEAN_MOTION_DDOT":0}]
